OBJECT_NAME,OBJECT_ID,EPOCH,MEAN_MOTION,ECCENTRICITY,INCLINATION,RA_OF_ASC_NODE,ARG_OF_PERICENTER,MEAN_ANOMALY,EPHEMERIS_TYPE,CLASSIFICATION_TYPE,NORAD_CAT_ID,ELEMENT_SET_NO,REV_AT_EPOCH,BSTAR,MEAN_MOTION_DOT,MEAN_MOTION_DDOT
TIANMU-1 21,2023-208C,2026-06-11T16:57:40.322880,15.34980510,.0006376,97.4495,282.2656,346.6907,13.4167,0,U,58662,999,13672,.26511E-3,.892E-4,0
TIANMU-1 22,2023-208D,2026-06-11T17:07:16.140864,15.30982243,.0003738,97.4491,278.9263,23.3925,336.7485,0,U,58663,999,13649,.23686E-3,.7013E-4,0
TIANMU-1 15,2024-004A,2026-06-11T17:24:14.742432,15.26967843,.0007255,97.4668,348.9152,21.1833,338.9705,0,U,58700,999,13494,.20707E-3,.541E-4,0
TIANMU-1 16,2024-004B,2026-06-11T17:07:19.735104,15.26692916,.0006375,97.4614,348.1465,26.1046,334.0513,0,U,58701,999,13494,.20448E-3,.5296E-4,0
TIANMU-1 17,2024-004C,2026-06-11T18:20:45.564000,15.26693022,.0006053,97.4642,348.6804,31.7817,328.3786,0,U,58702,999,13494,.19653E-3,.5087E-4,0
TIANMU-1 18,2024-004D,2026-06-11T17:48:04.665888,15.26951040,.0004577,97.4661,348.9098,32.2422,327.9096,0,U,58703,999,13494,.20107E-3,.5247E-4,0
INSAT-3DS,2024-033A,2026-06-11T17:03:25.902144,1.00272207,.0001086,0.0410,134.0649,300.5182,163.4221,0,U,58990,999,4701,0,-.14E-5,0
METEOR-M2 4,2024-039A,2026-06-11T16:43:19.459200,14.22429015,.0006967,98.7008,122.0638,176.5059,183.6169,0,U,59051,999,11848,.21248E-4,.4E-7,0
GOES 19,2024-119A,2026-06-11T14:35:53.719296,1.00270797,.0000482,0.0445,149.2699,19.5805,234.8905,0,U,60133,999,690,0,-.231E-5,0
MTG-S1,2025-143A,2026-06-11T08:05:42.897984,1.00271596,.00009689,0.6085,337.5964,19.3395,20.7012,0,U,64723,999,336,0,-.15E-6,0
METOP-SGA1,2025-172A,2026-06-11T15:33:52.725024,14.21508922,.0000944,98.6645,222.4772,89.4814,270.6472,0,U,65159,999,4300,.3443E-4,.32E-6,0
FENGYUN 3H,2025-219A,2026-06-11T16:27:17.776224,14.19919542,.0001624,98.6768,103.5617,80.9193,279.2167,0,U,65815,999,3660,.33945E-4,.29E-6,0
