TIANMU-1 21             
1 58662U 23208C   26162.70671670  .00008920  00000+0  26511-3 0  9999
2 58662  97.4495 282.2656 0006376 346.6907  13.4167 15.34980510136722
TIANMU-1 22             
1 58663U 23208D   26162.71338126  .00007013  00000+0  23686-3 0  9999
2 58663  97.4491 278.9263 0003738  23.3925 336.7485 15.30982243136492
TIANMU-1 15             
1 58700U 24004A   26162.72517063  .00005410  00000+0  20707-3 0  9996
2 58700  97.4668 348.9152 0007255  21.1833 338.9705 15.26967843134948
TIANMU-1 16             
1 58701U 24004B   26162.71342286  .00005296  00000+0  20448-3 0  9993
2 58701  97.4614 348.1465 0006375  26.1046 334.0513 15.26692916134942
TIANMU-1 17             
1 58702U 24004C   26162.76441625  .00005087  00000+0  19653-3 0  9990
2 58702  97.4642 348.6804 0006053  31.7817 328.3786 15.26693022134944
TIANMU-1 18             
1 58703U 24004D   26162.74172067  .00005247  00000+0  20107-3 0  9994
2 58703  97.4661 348.9098 0004577  32.2422 327.9096 15.26951040134947
INSAT-3DS               
1 58990U 24033A   26162.71071646 -.00000140  00000+0  00000+0 0  9996
2 58990   0.0410 134.0649 0001086 300.5182 163.4221  1.00272207 47011
METEOR-M2 4             
1 59051U 24039A   26162.69675300  .00000004  00000+0  21248-4 0  9995
2 59051  98.7008 122.0638 0006967 176.5059 183.6169 14.22429015118483
GOES 19                 
1 60133U 24119A   26162.60826064 -.00000231  00000+0  00000+0 0  9994
2 60133   0.0445 149.2699 0000482  19.5805 234.8905  1.00270797  6909
MTG-S1                  
1 64723U 25143A   26162.33730206 -.00000015  00000+0  00000+0 0  9993
2 64723   0.6085 337.5964 0000968  19.3395  20.7012  1.00271596  3368
METOP-SGA1              
1 65159U 25172A   26162.64852691  .00000032  00000+0  34430-4 0  9993
2 65159  98.6645 222.4772 0000944  89.4814 270.6472 14.21508922 43002
FENGYUN 3H              
1 65815U 25219A   26162.68562241  .00000029  00000+0  33945-4 0  9993
2 65815  98.6768 103.5617 0001624  80.9193 279.2167 14.19919542 36601
